QIANFAN-25              
1 61558U 24185G   26018.58993381  .00000446  00000+0  26413-3 0  9990
2 61558  88.9767  74.0208 0010221 186.7009 173.4039 14.05942546 74682
QIANFAN-26              
1 61559U 24185H   26018.64081440  .00000231  00000+0  21795-3 0  9992
2 61559  88.9778  75.7711 0003822 248.6450 111.4309 13.77835846 73750
QIANFAN-27              
1 61560U 24185J   26018.55332552  .00000633  00000+0  25223-3 0  9993
2 61560  88.9771  72.6294 0008733 154.1127 206.0506 14.27382028 75415
QIANFAN-28              
1 61561U 24185K   26018.58708602  .00000695  00000+0  27396-3 0  9991
2 61561  88.9788  72.6312 0008300 152.7776 207.3856 14.28113198 75434
QIANFAN-29              
1 61562U 24185L   26018.54794778  .00000154  00000+0  21958-3 0  9995
2 61562  88.9755  77.5103 0008151 310.2174  49.8264 13.51024810 72760
QIANFAN-30              
1 61563U 24185M   26018.55068974  .00000166  00000+0  24274-3 0  9996
2 61563  88.9775  77.0497 0005640 292.9815  67.0741 13.50002624 73033
QIANFAN-31              
1 61564U 24185N   26018.59771621  .00000197  00000+0  25619-3 0  9999
2 61564  88.9759  76.7881 0004949 283.0156  77.0446 13.57981847 73166
QIANFAN-32              
1 61565U 24185P   26018.64693714  .00000139  00000+0  19761-3 0  9999
2 61565  88.9819  77.1849 0007993 325.5817  34.4815 13.50749777 73020
