<?xml version="1.0" encoding="UTF-8"?>
<ndm xmlns:xsi="http://www.w3.org/2001/XMLSchema-instance" xsi:noNamespaceSchemaLocation="https://sanaregistry.org/r/ndmxml_unqualified/ndmxml-2.0.0-master-2.0.xsd">
<omm id="CCSDS_OMM_VERS" version="2.0">
<header><CREATION_DATE/><ORIGINATOR/></header><body><segment><metadata><OBJECT_NAME>QIANFAN-25</OBJECT_NAME><OBJECT_ID>2024-185G</OBJECT_ID><CENTER_NAME>EARTH</CENTER_NAME><REF_FRAME>TEME</REF_FRAME><TIME_SYSTEM>UTC</TIME_SYSTEM><MEAN_ELEMENT_THEORY>SGP4</MEAN_ELEMENT_THEORY></metadata><data><meanElements><EPOCH>2026-01-18T14:09:30.281184</EPOCH><MEAN_MOTION>14.05942546</MEAN_MOTION><ECCENTRICITY>.00102214</ECCENTRICITY><INCLINATION>88.9767</INCLINATION><RA_OF_ASC_NODE>74.0208</RA_OF_ASC_NODE><ARG_OF_PERICENTER>186.7009</ARG_OF_PERICENTER><MEAN_ANOMALY>173.4039</MEAN_ANOMALY></meanElements><tleParameters><EPHEMERIS_TYPE>0</EPHEMERIS_TYPE><CLASSIFICATION_TYPE>U</CLASSIFICATION_TYPE><NORAD_CAT_ID>61558</NORAD_CAT_ID><ELEMENT_SET_NO>999</ELEMENT_SET_NO><REV_AT_EPOCH>7468</REV_AT_EPOCH><BSTAR>.26413264E-3</BSTAR><MEAN_MOTION_DOT>.446E-5</MEAN_MOTION_DOT><MEAN_MOTION_DDOT>0</MEAN_MOTION_DDOT></tleParameters></data></segment></body></omm>
<omm id="CCSDS_OMM_VERS" version="2.0">
<header><CREATION_DATE/><ORIGINATOR/></header><body><segment><metadata><OBJECT_NAME>QIANFAN-26</OBJECT_NAME><OBJECT_ID>2024-185H</OBJECT_ID><CENTER_NAME>EARTH</CENTER_NAME><REF_FRAME>TEME</REF_FRAME><TIME_SYSTEM>UTC</TIME_SYSTEM><MEAN_ELEMENT_THEORY>SGP4</MEAN_ELEMENT_THEORY></metadata><data><meanElements><EPOCH>2026-01-18T15:22:46.364160</EPOCH><MEAN_MOTION>13.77835846</MEAN_MOTION><ECCENTRICITY>.00038225</ECCENTRICITY><INCLINATION>88.9778</INCLINATION><RA_OF_ASC_NODE>75.7711</RA_OF_ASC_NODE><ARG_OF_PERICENTER>248.6450</ARG_OF_PERICENTER><MEAN_ANOMALY>111.4309</MEAN_ANOMALY></meanElements><tleParameters><EPHEMERIS_TYPE>0</EPHEMERIS_TYPE><CLASSIFICATION_TYPE>U</CLASSIFICATION_TYPE><NORAD_CAT_ID>61559</NORAD_CAT_ID><ELEMENT_SET_NO>999</ELEMENT_SET_NO><REV_AT_EPOCH>7375</REV_AT_EPOCH><BSTAR>.21794719E-3</BSTAR><MEAN_MOTION_DOT>.231E-5</MEAN_MOTION_DOT><MEAN_MOTION_DDOT>0</MEAN_MOTION_DDOT></tleParameters></data></segment></body></omm>
<omm id="CCSDS_OMM_VERS" version="2.0">
<header><CREATION_DATE/><ORIGINATOR/></header><body><segment><metadata><OBJECT_NAME>QIANFAN-27</OBJECT_NAME><OBJECT_ID>2024-185J</OBJECT_ID><CENTER_NAME>EARTH</CENTER_NAME><REF_FRAME>TEME</REF_FRAME><TIME_SYSTEM>UTC</TIME_SYSTEM><MEAN_ELEMENT_THEORY>SGP4</MEAN_ELEMENT_THEORY></metadata><data><meanElements><EPOCH>2026-01-18T13:16:47.324928</EPOCH><MEAN_MOTION>14.27382028</MEAN_MOTION><ECCENTRICITY>.00087337</ECCENTRICITY><INCLINATION>88.9771</INCLINATION><RA_OF_ASC_NODE>72.6294</RA_OF_ASC_NODE><ARG_OF_PERICENTER>154.1127</ARG_OF_PERICENTER><MEAN_ANOMALY>206.0506</MEAN_ANOMALY></meanElements><tleParameters><EPHEMERIS_TYPE>0</EPHEMERIS_TYPE><CLASSIFICATION_TYPE>U</CLASSIFICATION_TYPE><NORAD_CAT_ID>61560</NORAD_CAT_ID><ELEMENT_SET_NO>999</ELEMENT_SET_NO><REV_AT_EPOCH>7541</REV_AT_EPOCH><BSTAR>.25222739E-3</BSTAR><MEAN_MOTION_DOT>.633E-5</MEAN_MOTION_DOT><MEAN_MOTION_DDOT>0</MEAN_MOTION_DDOT></tleParameters></data></segment></body></omm>
<omm id="CCSDS_OMM_VERS" version="2.0">
<header><CREATION_DATE/><ORIGINATOR/></header><body><segment><metadata><OBJECT_NAME>QIANFAN-28</OBJECT_NAME><OBJECT_ID>2024-185K</OBJECT_ID><CENTER_NAME>EARTH</CENTER_NAME><REF_FRAME>TEME</REF_FRAME><TIME_SYSTEM>UTC</TIME_SYSTEM><MEAN_ELEMENT_THEORY>SGP4</MEAN_ELEMENT_THEORY></metadata><data><meanElements><EPOCH>2026-01-18T14:05:24.232128</EPOCH><MEAN_MOTION>14.28113198</MEAN_MOTION><ECCENTRICITY>.00083006</ECCENTRICITY><INCLINATION>88.9788</INCLINATION><RA_OF_ASC_NODE>72.6312</RA_OF_ASC_NODE><ARG_OF_PERICENTER>152.7776</ARG_OF_PERICENTER><MEAN_ANOMALY>207.3856</MEAN_ANOMALY></meanElements><tleParameters><EPHEMERIS_TYPE>0</EPHEMERIS_TYPE><CLASSIFICATION_TYPE>U</CLASSIFICATION_TYPE><NORAD_CAT_ID>61561</NORAD_CAT_ID><ELEMENT_SET_NO>999</ELEMENT_SET_NO><REV_AT_EPOCH>7543</REV_AT_EPOCH><BSTAR>.27396153E-3</BSTAR><MEAN_MOTION_DOT>.695E-5</MEAN_MOTION_DOT><MEAN_MOTION_DDOT>0</MEAN_MOTION_DDOT></tleParameters></data></segment></body></omm>
<omm id="CCSDS_OMM_VERS" version="2.0">
<header><CREATION_DATE/><ORIGINATOR/></header><body><segment><metadata><OBJECT_NAME>QIANFAN-29</OBJECT_NAME><OBJECT_ID>2024-185L</OBJECT_ID><CENTER_NAME>EARTH</CENTER_NAME><REF_FRAME>TEME</REF_FRAME><TIME_SYSTEM>UTC</TIME_SYSTEM><MEAN_ELEMENT_THEORY>SGP4</MEAN_ELEMENT_THEORY></metadata><data><meanElements><EPOCH>2026-01-18T13:09:02.688192</EPOCH><MEAN_MOTION>13.51024810</MEAN_MOTION><ECCENTRICITY>.0008151</ECCENTRICITY><INCLINATION>88.9755</INCLINATION><RA_OF_ASC_NODE>77.5103</RA_OF_ASC_NODE><ARG_OF_PERICENTER>310.2174</ARG_OF_PERICENTER><MEAN_ANOMALY>49.8264</MEAN_ANOMALY></meanElements><tleParameters><EPHEMERIS_TYPE>0</EPHEMERIS_TYPE><CLASSIFICATION_TYPE>U</CLASSIFICATION_TYPE><NORAD_CAT_ID>61562</NORAD_CAT_ID><ELEMENT_SET_NO>999</ELEMENT_SET_NO><REV_AT_EPOCH>7276</REV_AT_EPOCH><BSTAR>.21958141E-3</BSTAR><MEAN_MOTION_DOT>.154E-5</MEAN_MOTION_DOT><MEAN_MOTION_DDOT>0</MEAN_MOTION_DDOT></tleParameters></data></segment></body></omm>
<omm id="CCSDS_OMM_VERS" version="2.0">
<header><CREATION_DATE/><ORIGINATOR/></header><body><segment><metadata><OBJECT_NAME>QIANFAN-30</OBJECT_NAME><OBJECT_ID>2024-185M</OBJECT_ID><CENTER_NAME>EARTH</CENTER_NAME><REF_FRAME>TEME</REF_FRAME><TIME_SYSTEM>UTC</TIME_SYSTEM><MEAN_ELEMENT_THEORY>SGP4</MEAN_ELEMENT_THEORY></metadata><data><meanElements><EPOCH>2026-01-18T13:12:59.593536</EPOCH><MEAN_MOTION>13.50002624</MEAN_MOTION><ECCENTRICITY>.00056403</ECCENTRICITY><INCLINATION>88.9775</INCLINATION><RA_OF_ASC_NODE>77.0497</RA_OF_ASC_NODE><ARG_OF_PERICENTER>292.9815</ARG_OF_PERICENTER><MEAN_ANOMALY>67.0741</MEAN_ANOMALY></meanElements><tleParameters><EPHEMERIS_TYPE>0</EPHEMERIS_TYPE><CLASSIFICATION_TYPE>U</CLASSIFICATION_TYPE><NORAD_CAT_ID>61563</NORAD_CAT_ID><ELEMENT_SET_NO>999</ELEMENT_SET_NO><REV_AT_EPOCH>7303</REV_AT_EPOCH><BSTAR>.2427411E-3</BSTAR><MEAN_MOTION_DOT>.166E-5</MEAN_MOTION_DOT><MEAN_MOTION_DDOT>0</MEAN_MOTION_DDOT></tleParameters></data></segment></body></omm>
<omm id="CCSDS_OMM_VERS" version="2.0">
<header><CREATION_DATE/><ORIGINATOR/></header><body><segment><metadata><OBJECT_NAME>QIANFAN-31</OBJECT_NAME><OBJECT_ID>2024-185N</OBJECT_ID><CENTER_NAME>EARTH</CENTER_NAME><REF_FRAME>TEME</REF_FRAME><TIME_SYSTEM>UTC</TIME_SYSTEM><MEAN_ELEMENT_THEORY>SGP4</MEAN_ELEMENT_THEORY></metadata><data><meanElements><EPOCH>2026-01-18T14:20:42.680544</EPOCH><MEAN_MOTION>13.57981847</MEAN_MOTION><ECCENTRICITY>.00049492</ECCENTRICITY><INCLINATION>88.9759</INCLINATION><RA_OF_ASC_NODE>76.7881</RA_OF_ASC_NODE><ARG_OF_PERICENTER>283.0156</ARG_OF_PERICENTER><MEAN_ANOMALY>77.0446</MEAN_ANOMALY></meanElements><tleParameters><EPHEMERIS_TYPE>0</EPHEMERIS_TYPE><CLASSIFICATION_TYPE>U</CLASSIFICATION_TYPE><NORAD_CAT_ID>61564</NORAD_CAT_ID><ELEMENT_SET_NO>999</ELEMENT_SET_NO><REV_AT_EPOCH>7316</REV_AT_EPOCH><BSTAR>.25618941E-3</BSTAR><MEAN_MOTION_DOT>.197E-5</MEAN_MOTION_DOT><MEAN_MOTION_DDOT>0</MEAN_MOTION_DDOT></tleParameters></data></segment></body></omm>
<omm id="CCSDS_OMM_VERS" version="2.0">
<header><CREATION_DATE/><ORIGINATOR/></header><body><segment><metadata><OBJECT_NAME>QIANFAN-32</OBJECT_NAME><OBJECT_ID>2024-185P</OBJECT_ID><CENTER_NAME>EARTH</CENTER_NAME><REF_FRAME>TEME</REF_FRAME><TIME_SYSTEM>UTC</TIME_SYSTEM><MEAN_ELEMENT_THEORY>SGP4</MEAN_ELEMENT_THEORY></metadata><data><meanElements><EPOCH>2026-01-18T15:31:35.368896</EPOCH><MEAN_MOTION>13.50749777</MEAN_MOTION><ECCENTRICITY>.00079934</ECCENTRICITY><INCLINATION>88.9819</INCLINATION><RA_OF_ASC_NODE>77.1849</RA_OF_ASC_NODE><ARG_OF_PERICENTER>325.5817</ARG_OF_PERICENTER><MEAN_ANOMALY>34.4815</MEAN_ANOMALY></meanElements><tleParameters><EPHEMERIS_TYPE>0</EPHEMERIS_TYPE><CLASSIFICATION_TYPE>U</CLASSIFICATION_TYPE><NORAD_CAT_ID>61565</NORAD_CAT_ID><ELEMENT_SET_NO>999</ELEMENT_SET_NO><REV_AT_EPOCH>7302</REV_AT_EPOCH><BSTAR>.19761241E-3</BSTAR><MEAN_MOTION_DOT>.139E-5</MEAN_MOTION_DOT><MEAN_MOTION_DDOT>0</MEAN_MOTION_DDOT></tleParameters></data></segment></body></omm>

</ndm>
